[{"OBJECT_NAME":"UNKNOWN","OBJECT_ID":"","EPOCH":"2026-04-02T22:22:13.681920","MEAN_MOTION":14.03125881,"ECCENTRICITY":0.00306656,"INCLINATION":82.5354,"RA_OF_ASC_NODE":339.776,"ARG_OF_PERICENTER":332.032,"MEAN_ANOMALY":27.9201,"EPHEMERIS_TYPE":0,"CLASSIFICATION_TYPE":"U","NORAD_CAT_ID":270202,"ELEMENT_SET_NO":999,"REV_AT_EPOCH":32323,"BSTAR":0.0023419447,"MEAN_MOTION_DOT":3.672e-5,"MEAN_MOTION_DDOT":0},{"OBJECT_NAME":"UNKNOWN","OBJECT_ID":"","EPOCH":"2026-03-21T12:06:43.475040","MEAN_MOTION":13.0066366,"ECCENTRICITY":0.00358986,"INCLINATION":90.2529,"RA_OF_ASC_NODE":10.4904,"ARG_OF_PERICENTER":130.8049,"MEAN_ANOMALY":229.6196,"EPHEMERIS_TYPE":0,"CLASSIFICATION_TYPE":"U","NORAD_CAT_ID":270203,"ELEMENT_SET_NO":999,"REV_AT_EPOCH":29910,"BSTAR":0.00044601827,"MEAN_MOTION_DOT":1.44e-6,"MEAN_MOTION_DDOT":0},{"OBJECT_NAME":"UNKNOWN","OBJECT_ID":"","EPOCH":"2026-04-04T22:51:18.618048","MEAN_MOTION":13.8765521,"ECCENTRICITY":0.00578315,"INCLINATION":89.9319,"RA_OF_ASC_NODE":345.7005,"ARG_OF_PERICENTER":217.4793,"MEAN_ANOMALY":142.2341,"EPHEMERIS_TYPE":0,"CLASSIFICATION_TYPE":"U","NORAD_CAT_ID":270204,"ELEMENT_SET_NO":999,"REV_AT_EPOCH":31951,"BSTAR":0.0026740962,"MEAN_MOTION_DOT":3.216e-5,"MEAN_MOTION_DDOT":0},{"OBJECT_NAME":"UNKNOWN","OBJECT_ID":"","EPOCH":"2026-04-02T19:47:54.140352","MEAN_MOTION":12.25264081,"ECCENTRICITY":0.00630139,"INCLINATION":47.2278,"RA_OF_ASC_NODE":300.0177,"ARG_OF_PERICENTER":252.3049,"MEAN_ANOMALY":107.0856,"EPHEMERIS_TYPE":0,"CLASSIFICATION_TYPE":"U","NORAD_CAT_ID":270205,"ELEMENT_SET_NO":999,"REV_AT_EPOCH":4480,"BSTAR":0.0048855882,"MEAN_MOTION_DOT":4.58e-6,"MEAN_MOTION_DDOT":0},{"OBJECT_NAME":"UNKNOWN","OBJECT_ID":"","EPOCH":"2026-04-04T09:05:57.089472","MEAN_MOTION":14.3249628,"ECCENTRICITY":0.00525708,"INCLINATION":98.5118,"RA_OF_ASC_NODE":138.2574,"ARG_OF_PERICENTER":136.4989,"MEAN_ANOMALY":224.036,"EPHEMERIS_TYPE":0,"CLASSIFICATION_TYPE":"U","NORAD_CAT_ID":270207,"ELEMENT_SET_NO":999,"REV_AT_EPOCH":32954,"BSTAR":0.00096618849,"MEAN_MOTION_DOT":2.616e-5,"MEAN_MOTION_DDOT":0},{"OBJECT_NAME":"UNKNOWN","OBJECT_ID":"","EPOCH":"2026-04-03T12:51:53.618400","MEAN_MOTION":14.37295993,"ECCENTRICITY":0.00024874,"INCLINATION":86.4008,"RA_OF_ASC_NODE":23.0408,"ARG_OF_PERICENTER":89.1784,"MEAN_ANOMALY":270.9699,"EPHEMERIS_TYPE":0,"CLASSIFICATION_TYPE":"U","NORAD_CAT_ID":270209,"ELEMENT_SET_NO":999,"REV_AT_EPOCH":32982,"BSTAR":0.00032763164,"MEAN_MOTION_DOT":9.96e-6,"MEAN_MOTION_DDOT":0},{"OBJECT_NAME":"UNKNOWN","OBJECT_ID":"","EPOCH":"2026-04-04T23:23:21.793056","MEAN_MOTION":14.37355095,"ECCENTRICITY":0.00029364,"INCLINATION":86.3995,"RA_OF_ASC_NODE":350.7724,"ARG_OF_PERICENTER":95.4948,"MEAN_ANOMALY":264.6585,"EPHEMERIS_TYPE":0,"CLASSIFICATION_TYPE":"U","NORAD_CAT_ID":270210,"ELEMENT_SET_NO":999,"REV_AT_EPOCH":33006,"BSTAR":0.00023422659,"MEAN_MOTION_DOT":7.18e-6,"MEAN_MOTION_DDOT":0},{"OBJECT_NAME":"UNKNOWN","OBJECT_ID":"","EPOCH":"2026-04-01T02:05:19.957056","MEAN_MOTION":12.88825342,"ECCENTRICITY":0.02147523,"INCLINATION":82.4894,"RA_OF_ASC_NODE":217.5379,"ARG_OF_PERICENTER":102.4009,"MEAN_ANOMALY":260.1222,"EPHEMERIS_TYPE":0,"CLASSIFICATION_TYPE":"U","NORAD_CAT_ID":270211,"ELEMENT_SET_NO":999,"REV_AT_EPOCH":29784,"BSTAR":1.8106208e-5,"MEAN_MOTION_DOT":1.9e-7,"MEAN_MOTION_DDOT":0},{"OBJECT_NAME":"UNKNOWN","OBJECT_ID":"","EPOCH":"2026-03-26T16:33:45.587808","MEAN_MOTION":11.82548398,"ECCENTRICITY":0.10476368,"INCLINATION":83.2255,"RA_OF_ASC_NODE":227.0895,"ARG_OF_PERICENTER":255.2292,"MEAN_ANOMALY":93.0558,"EPHEMERIS_TYPE":0,"CLASSIFICATION_TYPE":"U","NORAD_CAT_ID":270212,"ELEMENT_SET_NO":999,"REV_AT_EPOCH":27161,"BSTAR":0.0099084934,"MEAN_MOTION_DOT":2.945e-5,"MEAN_MOTION_DDOT":0},{"OBJECT_NAME":"UNKNOWN","OBJECT_ID":"","EPOCH":"2026-04-02T23:07:20.847936","MEAN_MOTION":13.99738694,"ECCENTRICITY":0.00095071,"INCLINATION":82.5533,"RA_OF_ASC_NODE":347.9054,"ARG_OF_PERICENTER":188.939,"MEAN_ANOMALY":171.1611,"EPHEMERIS_TYPE":0,"CLASSIFICATION_TYPE":"U","NORAD_CAT_ID":270215,"ELEMENT_SET_NO":999,"REV_AT_EPOCH":32278,"BSTAR":0.0035454181,"MEAN_MOTION_DOT":5.206e-5,"MEAN_MOTION_DDOT":0},{"OBJECT_NAME":"UNKNOWN","OBJECT_ID":"","EPOCH":"2026-04-04T12:06:54.141120","MEAN_MOTION":13.0610939,"ECCENTRICITY":0.00335728,"INCLINATION":90.3267,"RA_OF_ASC_NODE":14.9338,"ARG_OF_PERICENTER":319.8434,"MEAN_ANOMALY":40.0211,"EPHEMERIS_TYPE":0,"CLASSIFICATION_TYPE":"U","NORAD_CAT_ID":270216,"ELEMENT_SET_NO":999,"REV_AT_EPOCH":29895,"BSTAR":0.00092102955,"MEAN_MOTION_DOT":3.1e-6,"MEAN_MOTION_DDOT":0},{"OBJECT_NAME":"UNKNOWN","OBJECT_ID":"","EPOCH":"2026-03-29T04:59:30.944256","MEAN_MOTION":12.56937489,"ECCENTRICITY":0.00291713,"INCLINATION":101.9439,"RA_OF_ASC_NODE":73.8608,"ARG_OF_PERICENTER":13.4042,"MEAN_ANOMALY":346.7801,"EPHEMERIS_TYPE":0,"CLASSIFICATION_TYPE":"U","NORAD_CAT_ID":270219,"ELEMENT_SET_NO":999,"REV_AT_EPOCH":28884,"BSTAR":0.00030538011,"MEAN_MOTION_DOT":4.0e-8,"MEAN_MOTION_DDOT":0},{"OBJECT_NAME":"UNKNOWN","OBJECT_ID":"","EPOCH":"2026-04-04T12:16:26.479776","MEAN_MOTION":14.49551787,"ECCENTRICITY":0.00285865,"INCLINATION":81.2108,"RA_OF_ASC_NODE":15.1344,"ARG_OF_PERICENTER":317.1084,"MEAN_ANOMALY":42.7879,"EPHEMERIS_TYPE":0,"CLASSIFICATION_TYPE":"U","NORAD_CAT_ID":270220,"ELEMENT_SET_NO":999,"REV_AT_EPOCH":32808,"BSTAR":0.0042245735,"MEAN_MOTION_DOT":0.00016328,"MEAN_MOTION_DDOT":0},{"OBJECT_NAME":"UNKNOWN","OBJECT_ID":"","EPOCH":"2026-04-02T04:29:32.872128","MEAN_MOTION":11.85992907,"ECCENTRICITY":0.10524709,"INCLINATION":83.1607,"RA_OF_ASC_NODE":57.6934,"ARG_OF_PERICENTER":46.0471,"MEAN_ANOMALY":322.2677,"EPHEMERIS_TYPE":0,"CLASSIFICATION_TYPE":"U","NORAD_CAT_ID":270221,"ELEMENT_SET_NO":999,"REV_AT_EPOCH":27290,"BSTAR":0.0045045608,"MEAN_MOTION_DOT":1.463e-5,"MEAN_MOTION_DDOT":0},{"OBJECT_NAME":"UNKNOWN","OBJECT_ID":"","EPOCH":"2026-03-23T01:40:35.450400","MEAN_MOTION":12.95579941,"ECCENTRICITY":0.00374444,"INCLINATION":90.2531,"RA_OF_ASC_NODE":4.5138,"ARG_OF_PERICENTER":68.8727,"MEAN_ANOMALY":291.6388,"EPHEMERIS_TYPE":0,"CLASSIFICATION_TYPE":"U","NORAD_CAT_ID":270222,"ELEMENT_SET_NO":999,"REV_AT_EPOCH":29571,"BSTAR":0.0026451536,"MEAN_MOTION_DOT":7.57e-6,"MEAN_MOTION_DDOT":0},{"OBJECT_NAME":"UNKNOWN","OBJECT_ID":"","EPOCH":"2026-03-31T00:10:22.913760","MEAN_MOTION":13.0045054,"ECCENTRICITY":0.00240076,"INCLINATION":90.2595,"RA_OF_ASC_NODE":3.752,"ARG_OF_PERICENTER":220.0488,"MEAN_ANOMALY":139.8865,"EPHEMERIS_TYPE":0,"CLASSIFICATION_TYPE":"U","NORAD_CAT_ID":270223,"ELEMENT_SET_NO":999,"REV_AT_EPOCH":29669,"BSTAR":-0.0013643796,"MEAN_MOTION_DOT":-4.06e-6,"MEAN_MOTION_DDOT":0},{"OBJECT_NAME":"UNKNOWN","OBJECT_ID":"","EPOCH":"2026-03-23T03:54:12.132288","MEAN_MOTION":13.40393289,"ECCENTRICITY":0.05289761,"INCLINATION":73.1439,"RA_OF_ASC_NODE":247.413,"ARG_OF_PERICENTER":53.1051,"MEAN_ANOMALY":311.7323,"EPHEMERIS_TYPE":0,"CLASSIFICATION_TYPE":"U","NORAD_CAT_ID":270224,"ELEMENT_SET_NO":999,"REV_AT_EPOCH":30150,"BSTAR":0.0038965174,"MEAN_MOTION_DOT":4.852e-5,"MEAN_MOTION_DDOT":0},{"OBJECT_NAME":"UNKNOWN","OBJECT_ID":"","EPOCH":"2026-03-31T11:04:21.437472","MEAN_MOTION":11.67013212,"ECCENTRICITY":0.03965726,"INCLINATION":101.2565,"RA_OF_ASC_NODE":177.8927,"ARG_OF_PERICENTER":10.4976,"MEAN_ANOMALY":350.4039,"EPHEMERIS_TYPE":0,"CLASSIFICATION_TYPE":"U","NORAD_CAT_ID":270226,"ELEMENT_SET_NO":999,"REV_AT_EPOCH":26775,"BSTAR":-0.00010602412,"MEAN_MOTION_DOT":-3.9e-7,"MEAN_MOTION_DDOT":0},{"OBJECT_NAME":"UNKNOWN","OBJECT_ID":"","EPOCH":"2026-04-02T13:19:56.046720","MEAN_MOTION":12.24568447,"ECCENTRICITY":0.01400254,"INCLINATION":74.0097,"RA_OF_ASC_NODE":198.6233,"ARG_OF_PERICENTER":196.8036,"MEAN_ANOMALY":162.8337,"EPHEMERIS_TYPE":0,"CLASSIFICATION_TYPE":"U","NORAD_CAT_ID":270228,"ELEMENT_SET_NO":999,"REV_AT_EPOCH":27935,"BSTAR":0.00059566423,"MEAN_MOTION_DOT":5.2e-7,"MEAN_MOTION_DDOT":0},{"OBJECT_NAME":"UNKNOWN","OBJECT_ID":"","EPOCH":"2026-04-04T13:00:11.151072","MEAN_MOTION":13.91250985,"ECCENTRICITY":0.01422698,"INCLINATION":98.9402,"RA_OF_ASC_NODE":17.599,"ARG_OF_PERICENTER":98.4374,"MEAN_ANOMALY":263.294,"EPHEMERIS_TYPE":0,"CLASSIFICATION_TYPE":"U","NORAD_CAT_ID":270229,"ELEMENT_SET_NO":999,"REV_AT_EPOCH":31768,"BSTAR":0.00052371445,"MEAN_MOTION_DOT":6.75e-6,"MEAN_MOTION_DDOT":0},{"OBJECT_NAME":"UNKNOWN","OBJECT_ID":"","EPOCH":"2026-04-01T14:59:01.838976","MEAN_MOTION":12.21074386,"ECCENTRICITY":0.02792231,"INCLINATION":103.0242,"RA_OF_ASC_NODE":65.9125,"ARG_OF_PERICENTER":236.493,"MEAN_ANOMALY":120.9152,"EPHEMERIS_TYPE":0,"CLASSIFICATION_TYPE":"U","NORAD_CAT_ID":270230,"ELEMENT_SET_NO":999,"REV_AT_EPOCH":27652,"BSTAR":0.0096091791,"MEAN_MOTION_DOT":1.093e-5,"MEAN_MOTION_DDOT":0},{"OBJECT_NAME":"UNKNOWN","OBJECT_ID":"","EPOCH":"2026-03-30T04:42:52.769376","MEAN_MOTION":12.92302389,"ECCENTRICITY":0.06986796,"INCLINATION":72.9678,"RA_OF_ASC_NODE":267.2136,"ARG_OF_PERICENTER":216.6441,"MEAN_ANOMALY":138.4873,"EPHEMERIS_TYPE":0,"CLASSIFICATION_TYPE":"U","NORAD_CAT_ID":270232,"ELEMENT_SET_NO":999,"REV_AT_EPOCH":29187,"BSTAR":0.0033692982,"MEAN_MOTION_DOT":2.73e-5,"MEAN_MOTION_DDOT":0},{"OBJECT_NAME":"UNKNOWN","OBJECT_ID":"","EPOCH":"2026-03-31T06:47:32.337024","MEAN_MOTION":14.38516524,"ECCENTRICITY":0.00331052,"INCLINATION":98.627,"RA_OF_ASC_NODE":96.3073,"ARG_OF_PERICENTER":46.9803,"MEAN_ANOMALY":313.4149,"EPHEMERIS_TYPE":0,"CLASSIFICATION_TYPE":"U","NORAD_CAT_ID":270233,"ELEMENT_SET_NO":999,"REV_AT_EPOCH":32409,"BSTAR":0.0002136711,"MEAN_MOTION_DOT":6.12e-6,"MEAN_MOTION_DDOT":0},{"OBJECT_NAME":"UNKNOWN","OBJECT_ID":"","EPOCH":"2026-03-22T16:08:26.997216","MEAN_MOTION":13.59277844,"ECCENTRICITY":0.01442835,"INCLINATION":82.9338,"RA_OF_ASC_NODE":54.8788,"ARG_OF_PERICENTER":165.5466,"MEAN_ANOMALY":194.9877,"EPHEMERIS_TYPE":0,"CLASSIFICATION_TYPE":"U","NORAD_CAT_ID":270235,"ELEMENT_SET_NO":999,"REV_AT_EPOCH":30981,"BSTAR":0.0009851245,"MEAN_MOTION_DOT":7.92e-6,"MEAN_MOTION_DDOT":0}]
